C/2016 Q2 (PANSTARRS),h,05/12.4216/2021,109.3687,322.3247,84.5574,1.003307,7.081407,2000,6.0,4.0
# From MPEC 2022-K19
P/2016 R4 (Gibbs),e,10.8745,168.2852,174.1299,5.333876,0.0800092,0.47577178,211.9210,10/25.0/2023,2000,g 12.5,4.0
# From MPC105543
P/2016 S1 (PANSTARRS),e,94.7394,227.6770,273.2238,8.272947,0.0414203,0.71090379,99.9102,10/25.0/2023,2000,g 12.0,4.0
# From MPC106345
P/2016 WM48 (Lemmon),e,117.6237,59.9491,36.1670,8.172014,0.0421901,0.78356650,102.6787,10/25.0/2023,2000,g 15.0,4.0
# From MPEC 2021-P47
C/2016 X1 (Lemmon),e,26.4647,256.3164,224.5056,1586,0.0000156,0.99523761,0.0000,04/28.4442/2019,2000,g  6.0,4.0
# From MPEC 2022-OB6
C/2017 B3 (LINEAR),e,54.1688,2.1840,284.8351,14496,0.0000006,0.99972871,0.0000,01/31.6133/2019,2000,g  6.0,4.0
# From MPC103847
P/2017 B4 (PANSTARRS),e,20.0584,121.4578,11.0197,4.410520,0.1064068,0.36495152,359.9130,01/05.0/2017,2000,g 14.5,4.0
# From MPEC 2022-OB6
P/2017 D1 (Fuls),e,20.7715,82.1976,7.9681,4.826267,0.0929580,0.43741405,249.0085,10/25.0/2023,2000,g 14.0,4.0
# From MPEC 2022-OB6
P/2017 D4 (PANSTARRS),e,10.5534,264.8994,212.1395,7.544986,0.0475572,0.62963788,123.8588,10/25.0/2023,2000,g 13.0,4.0
# From MPC104794
P/2017 G1 (PANSTARRS),e,4.7880,249.7040,224.2974,7.272126,0.0502588,0.65440137,137.4669,10/25.0/2023,2000,g 13.5,4.0
# From MPC108595
P/2017 G2 (PANSTARRS),e,47.9662,79.8782,105.3232,8.045398,0.0431900,0.64777240,100.5951,10/25.0/2023,2000,g 13.0,4.0
# From MPEC 2023-UF9
C/2017 K2 (PANSTARRS),h,12/19.6748/2022,87.5653,88.2344,236.2073,1.000628,1.797135,2000,1.5,4.0
# From MPEC 2021-N06
P/2017 K3 (Gasparovic),e,4.2737,354.3062,253.3561,5.585106,0.0746719,0.57888079,174.9830,10/25.0/2023,2000,g 14.5,4.0
# From MPEC 2021-P47
C/2017 K5 (PANSTARRS),h,03/27.1264/2020,82.2634,102.4230,172.0507,1.004222,7.685770,2000,5.0,4.0
# From MPEC 2022-OB6
C/2017 M4 (ATLAS),h,01/17.9477/2019,105.6282,66.0067,167.5581,1.000960,3.247437,2000,6.0,4.0
# From MPC114599
P/2017 P1 (PANSTARRS),e,7.6878,221.4624,122.7625,7.918632,0.0442312,0.31034012,86.2463,10/25.0/2023,2000,g 10.0,4.0
# From MPEC 2022-OB6
P/2017 S8 (PANSTARRS),e,29.8469,191.5357,254.8584,2.778627,0.2127937,0.39093815,86.1225,10/25.0/2023,2000,g 16.0,4.0
# From MPEC 2022-YN2
C/2017 T2 (PANSTARRS),e,57.2853,64.4401,92.8636,1487,0.0000172,0.99891648,0.0000,05/05.0015/2020,2000,g  5.0,4.0
# From MPC115882
P/2017 TW13 (Lemmon),e,44.8637,322.2398,119.9034,7.134999,0.0517146,0.71058882,100.8667,10/25.0/2023,2000,g 15.0,2.0
# From MPEC 2022-K19
P/2017 U3 (PANSTARRS),e,15.9177,165.0951,296.2079,4.922692,0.0902402,0.10013785,149.4895,10/25.0/2023,2000,g 11.0,4.0
# From MPEC 2023-A50
C/2017 U7 (PANSTARRS),h,09/15.8158/2019,142.6258,276.2885,326.4606,1.002328,6.428270,2000,8.3,2.0
# From MPC114601
P/2017 W3 (Gibbs),e,18.1718,210.1703,327.7832,7.826308,0.0450162,0.50636033,93.0450,10/25.0/2023,2000,g 10.5,4.0
# From MPEC 2022-TD3
C/2017 Y2 (PANSTARRS),h,11/04.5635/2020,28.4277,66.0358,147.8894,1.000092,4.633320,2000,15.0,4.0
# From MPC111770
P/2017 Y3 (Leonard),e,27.5807,153.8941,67.5200,9.811049,0.0320724,0.86931423,66.8892,10/25.0/2023,2000,g 16.5,4.0
# From MPEC 2021-P47
C/2018 A3 (ATLAS),e,139.5487,194.3015,86.3742,350.4586,0.0001502,0.99063440,0.0000,01/10.0164/2019,2000,g  8.5,4.0
# From MPC109147
P/2018 A5 (PANSTARRS),e,23.6121,87.7844,359.4931,5.626527,0.0738488,0.52397209,163.9675,10/25.0/2023,2000,g 15.0,4.0
# From MPEC 2023-UF9
C/2018 A6 (Gibbs),e,77.0828,340.3963,264.3295,15.02403,0.0169248,0.79907586,26.5233,10/25.0/2023,2000,g  9.0,4.0
# From MPC114601
P/2018 C1 (Lemmon-Read),e,5.1084,270.3020,235.7018,5.651512,0.0733596,0.53214572,151.8455,10/25.0/2023,2000,g 13.5,4.0
# From MPEC 2022-M88
C/2018 DO4 (Lemmon),e,60.4606,251.3795,176.3232,25.46346,0.0076706,0.90528780,11.7307,10/25.0/2023,2000,g 11.0,4.0
# From MPEC 2021-R75
C/2018 F1 (Grauer),e,46.0953,177.2819,71.5538,230.3226,0.0002820,0.98698715,0.0000,12/11.1154/2018,2000,g 11.5,4.0
# From MPEC 2023-A50
C/2018 F4 (PANSTARRS),e,78.0836,26.5154,263.2112,3231,0.0000054,0.99893356,0.0000,12/02.3733/2019,2000,g 11.0,6.0
# From MPEC 2021-Y10
C/2018 F4-A,e,78.0838,26.5156,263.2080,3078,0.0000058,0.99888060,0.0000,12/02.3614/2019,2000,g 11.0,6.0
# From MPEC 2023-D41
C/2018 F4-B,e,78.0847,26.5151,263.1938,3343,0.0000051,0.99896939,0.0000,12/02.2982/2019,2000,g 11.0,6.0
# From MPC114602
P/2018 H2 (PANSTARRS),e,7.4151,68.0130,119.6175,4.390506,0.1071352,0.54149870,227.0131,10/25.0/2023,2000,g 16.6,2.0
# From MPEC 2021-R75
C/2018 KJ3 (Lemmon),e,136.6498,91.6747,217.6306,880.3825,0.0000377,0.99588417,0.0000,09/09.8889/2019,2000,g 12.2,2.0
# From MPC114602
P/2018 L1 (PANSTARRS),e,10.5797,268.5995,18.0210,3.655042,0.1410475,0.48142806,255.2153,10/25.0/2023,2000,g 15.0,4.0
# From MPEC 2021-P47
C/2018 L2 (ATLAS),e,67.2153,242.9882,56.3443,251.0044,0.0002478,0.99315463,0.0000,12/01.5256/2018,2000,g 10.0,4.0
# From MPC114603
P/2018 L4 (PANSTARRS),e,26.6072,145.1984,140.5923,4.946720,0.0895835,0.65857348,171.4089,10/25.0/2023,2000,g 17.5,4.0
# From MPC119996
P/2018 L5 (Leonard),e,2.2088,219.0580,93.9385,3.629112,0.1425619,0.36397325,284.8860,10/25.0/2023,2000,g 14.5,4.0
# From MPEC 2022-YN2
C/2018 N2 (ASASSN),h,11/11.6561/2019,77.5548,24.4899,25.2453,1.001389,3.130115,2000,6.0,4.0
# From MPEC 2023-J29
P/2018 P3 (PANSTARRS),e,8.9149,59.1604,306.0124,3.003780,0.1893224,0.41716237,348.1213,10/25.0/2023,2000,g 14.5,4.0
# From MPC114603
P/2018 P4 (PANSTARRS),e,23.1040,353.1366,8.4445,6.689086,0.0569710,0.45023845,103.1652,10/25.0/2023,2000,g 12.0,4.0
# From MPEC 2021-P47
C/2018 P5 (PANSTARRS),e,7.2458,216.2501,131.9913,12.85258,0.0213904,0.64267436,36.3641,10/25.0/2023,2000,g 11.0,4.0
# From MPC118841
C/2018 R3 (Lemmon),e,69.7219,324.5597,112.7050,1601,0.0000154,0.99919891,0.0000,06/07.9570/2019,2000,g  9.5,4.0
# From MPC114603
C/2018 R5 (Lemmon),e,3.7484,171.1729,178.2183,22.92358,0.0089801,0.84129258,15.7060,10/25.0/2023,2000,g 11.5,4.0
# From MPEC 2022-QC6
C/2018 S2 (TESS),e,64.1286,85.1246,290.8314,14.36784,0.0180974,0.61874956,32.8139,10/25.0/2023,2000,g  7.5,4.0
# From MPEC 2023-N01
C/2018 U1 (Lemmon),h,11/02.9927/2021,108.3231,75.5040,180.4574,1.001328,4.991916,2000,5.0,4.0
# From MPC114604
C/2018 V1 (Machholz-Fujikawa-Iwamoto),h,12/02.9604/2018,144.1315,129.2352,89.2819,1.000391,0.391627,2000,12.0,4.0
# From MPC115884
C/2018 V2 (ATLAS),e,159.1671,357.1025,319.1055,25.12418,0.0078265,0.90091839,14.0462,10/25.0/2023,2000,g 15.0,4.0
# From MPEC 2023-CD7
P/2018 VN2 (Leonard),e,18.2603,226.4412,138.9125,4.061758,0.1204018,0.47861153,236.5540,10/25.0/2023,2000,g 15.0,4.0
# From MPEC 2022-VC5
A/2018 V3,e,164.9491,308.7392,3.6175,128.4708,0.0006769,0.98958256,0.0000,09/09.6771/2019,2000,g 15.7,2.0
# From MPEC 2022-M21
C/2018 V4 (Africano),e,69.0273,78.2719,359.9674,206.2085,0.0003328,0.98450600,0.0000,03/01.9759/2019,2000,g 12.5,4.0
# From MPEC 2021-P47
P/2018 V5 (Trujillo-Sheppard),e,10.5881,171.3277,260.6745,8.966495,0.0367088,0.47585933,67.7747,10/25.0/2023,2000,g 12.5,4.0
# From MPEC 2021-P47
C/2018 W1 (Catalina),e,83.4186,233.6539,251.2148,21.69966,0.0097505,0.93745324,15.8610,10/25.0/2023,2000,g 15.5,2.0
# From MPEC 2021-P47
C/2018 W2 (Africano),h,09/05.3055/2019,116.6135,181.8436,158.1338,1.000729,1.463650,2000,9.5,4.0
# From MPEC 2023-M14
A/2018 W3,e,104.8321,251.6824,313.9537,716.1433,0.0000514,0.99401034,0.0000,04/13.0836/2021,2000,g 10.7,2.0
# From MPC119996
C/2018 X2 (Fitzsimmons),e,23.0791,340.7692,161.9357,138.9870,0.0006015,0.98476807,0.0000,07/08.5400/2019,2000,g 12.0,4.0
# From MPC114604
C/2018 X3 (PANSTARRS),e,43.4102,78.8160,359.7608,12.38400,0.0226158,0.78279224,39.7640,10/25.0/2023,2000,g 14.5,4.0
# From MPEC 2023-HD1
C/2018 Y1 (Iwamoto),e,160.4277,147.4470,357.8806,128.0983,0.0006798,0.98996793,0.0000,02/05.1777/2019,2000,g  9.0,4.0
# From MPC114605
P/2018 Y2 (Africano),e,11.6873,297.1733,162.2609,7.453109,0.0484393,0.47961058,85.0815,10/25.0/2023,2000,g 11.5,4.0
# From MPC114605
P/2019 A1 (PANSTARRS),e,13.7555,312.2497,150.7118,5.114849,0.0852030,0.56960175,156.6980,10/25.0/2023,2000,g 16.0,4.0
# From MPEC 2021-P47
P/2019 A2 (ATLAS),e,14.8633,139.4154,323.8607,5.712252,0.0721927,0.38260365,129.8494,10/25.0/2023,2000,g 10.5,4.0
# From MPEC 2022-M21
P/2019 A3 (PANSTARRS),e,15.3747,31.3562,325.6424,3.143669,0.1768271,0.26607642,337.0756,10/25.0/2023,2000,g 16.0,4.0
# From MPEC 2022-L66
P/2019 A4 (PANSTARRS),e,13.3048,119.3685,342.9795,2.613947,0.2332163,0.08724318,54.8914,10/25.0/2023,2000,g 15.0,4.0
# From MPEC 2021-P47
C/2019 A5 (PANSTARRS),e,67.5492,146.5849,355.7753,21.47619,0.0099030,0.70608827,15.8608,10/25.0/2023,2000,g  9.5,4.0
# From MPC114605
P/2019 A6 (Lemmon-PANSTARRS),e,33.2688,280.2013,156.1849,5.356963,0.0794925,0.64024069,149.5275,10/25.0/2023,2000,g 16.0,4.0
# From MPC115884
P/2019 A8 (PANSTARRS),e,2.2099,114.6454,64.4952,4.319673,0.1097811,0.23064750,215.6439,10/25.0/2023,2000,g 16.0,4.0
# From MPC118842
C/2019 A9 (PANSTARRS),e,84.3078,278.4292,237.9112,39.14159,0.0040248,0.96346002,6.2464,10/25.0/2023,2000,g 15.0,4.0
# From MPEC 2022-L66
C/2019 B1 (Africano),e,23.4012,290.3063,174.7957,139.9149,0.0005955,0.98862352,0.0000,03/19.7434/2019,2000,g 16.0,4.0
# From MPC115885
P/2019 B2 (Groeller),e,16.9882,175.7382,0.8906,3.919199,0.1270305,0.35889905,205.1360,10/25.0/2023,2000,g 14.5,4.0
# From MPEC 2023-UF9
C/2019 B3 (PANSTARRS),e,66.5449,358.4281,263.9714,9224,0.0000011,0.99925995,0.0000,01/20.1548/2021,2000,g  5.5,4.0
# From MPEC 2021-P47
C/2019 C1 (ATLAS),e,36.0524,212.3933,319.0418,642.7123,0.0000605,0.98977225,0.0000,05/04.0906/2020,2000,g 10.0,4.0
# From MPEC 2022-O08
C/2019 D1 (Flewelling),e,33.9971,231.6484,70.7181,141.3343,0.0005866,0.98876295,0.0000,05/10.6943/2019,2000,g 13.0,4.0
# From MPEC 2023-UF9
C/2019 E3 (ATLAS),e,84.2982,347.2361,280.6971,8894,0.0000012,0.99884039,0.0000,11/15.2278/2023,2000,g  2.5,4.0
# From MPEC 2023-UF9
C/2019 F1 (ATLAS-Africano),h,06/22.5736/2021,54.2356,38.6637,251.3379,1.002122,3.606083,2000,5.5,4.0
# From MPEC 2021-P47
